[
  {
    "OBJECT_NAME": "STARLINK-4530",
    "OBJECT_ID": "22097F",
    "EPOCH": "2025-11-11T04:55:30.941472",
    "MEAN_MOTION": 15.08837505,
    "ECCENTRICITY": 0.0001444,
    "INCLINATION": 53.2172,
    "RA_OF_ASC_NODE": 296.019,
    "ARG_OF_PERICENTER": 85.7569,
    "MEAN_ANOMALY": 274.3588,
    "EPHEMERIS_TYPE": 0,
    "CLASSIFICATION_TYPE": "U",
    "NORAD_CAT_ID": 53393,
    "ELEMENT_SET_NO": 999,
    "REV_AT_EPOCH": 18078,
    "BSTAR": 0.00012817999999999998,
    "MEAN_MOTION_DOT": 1.753e-05,
    "MEAN_MOTION_DDOT": 0.0,
    "TLE_LINE1": "1 53393U 22097F   25315.20521923  .00001753  00000+0  12818-3 0  9991",
    "TLE_LINE2": "2 53393  53.2172 296.0190 0001444  85.7569 274.3588 15.08837505180788",
    "COMMENT": "Grouped by shell and plane from TLE"
  },
  {
    "OBJECT_NAME": "STARLINK-4534",
    "OBJECT_ID": "22097H",
    "EPOCH": "2025-11-11T06:21:40.596480",
    "MEAN_MOTION": 15.08843465,
    "ECCENTRICITY": 0.0001304,
    "INCLINATION": 53.2175,
    "RA_OF_ASC_NODE": 295.759,
    "ARG_OF_PERICENTER": 90.3127,
    "MEAN_ANOMALY": 269.8015,
    "EPHEMERIS_TYPE": 0,
    "CLASSIFICATION_TYPE": "U",
    "NORAD_CAT_ID": 53395,
    "ELEMENT_SET_NO": 999,
    "REV_AT_EPOCH": 18063,
    "BSTAR": 0.00012184000000000001,
    "MEAN_MOTION_DOT": 1.652e-05,
    "MEAN_MOTION_DDOT": 0.0,
    "TLE_LINE1": "1 53395U 22097H   25315.26505320  .00001652  00000+0  12184-3 0  9996",
    "TLE_LINE2": "2 53395  53.2175 295.7590 0001304  90.3127 269.8015 15.08843465180630",
    "COMMENT": "Grouped by shell and plane from TLE"
  },
  {
    "OBJECT_NAME": "STARLINK-4524",
    "OBJECT_ID": "22097J",
    "EPOCH": "2025-11-11T05:59:06.374976",
    "MEAN_MOTION": 15.08837435,
    "ECCENTRICITY": 0.000142,
    "INCLINATION": 53.2179,
    "RA_OF_ASC_NODE": 295.8197,
    "ARG_OF_PERICENTER": 93.4473,
    "MEAN_ANOMALY": 266.6681,
    "EPHEMERIS_TYPE": 0,
    "CLASSIFICATION_TYPE": "U",
    "NORAD_CAT_ID": 53396,
    "ELEMENT_SET_NO": 999,
    "REV_AT_EPOCH": 18063,
    "BSTAR": 2.5795000000000003e-05,
    "MEAN_MOTION_DOT": 1.23e-06,
    "MEAN_MOTION_DDOT": 0.0,
    "TLE_LINE1": "1 53396U 22097J   25315.24937934  .00000123  00000+0  25795-4 0  9990",
    "TLE_LINE2": "2 53396  53.2179 295.8197 0001420  93.4473 266.6681 15.08837435180630",
    "COMMENT": "Grouped by shell and plane from TLE"
  },
  {
    "OBJECT_NAME": "STARLINK-4515",
    "OBJECT_ID": "22097K",
    "EPOCH": "2025-11-11T06:15:00.262944",
    "MEAN_MOTION": 15.08838152,
    "ECCENTRICITY": 0.0001423,
    "INCLINATION": 53.2186,
    "RA_OF_ASC_NODE": 295.7708,
    "ARG_OF_PERICENTER": 94.5089,
    "MEAN_ANOMALY": 265.6066,
    "EPHEMERIS_TYPE": 0,
    "CLASSIFICATION_TYPE": "U",
    "NORAD_CAT_ID": 53397,
    "ELEMENT_SET_NO": 999,
    "REV_AT_EPOCH": 18063,
    "BSTAR": 4.3247e-05,
    "MEAN_MOTION_DOT": 4e-06,
    "MEAN_MOTION_DDOT": 0.0,
    "TLE_LINE1": "1 53397U 22097K   25315.26041971  .00000400  00000+0  43247-4 0  9990",
    "TLE_LINE2": "2 53397  53.2186 295.7708 0001423  94.5089 265.6066 15.08838152180637",
    "COMMENT": "Grouped by shell and plane from TLE"
  },
  {
    "OBJECT_NAME": "STARLINK-4512",
    "OBJECT_ID": "22097L",
    "EPOCH": "2025-11-11T05:48:30.351744",
    "MEAN_MOTION": 15.08839461,
    "ECCENTRICITY": 0.0001384,
    "INCLINATION": 53.2175,
    "RA_OF_ASC_NODE": 295.8525,
    "ARG_OF_PERICENTER": 87.2879,
    "MEAN_ANOMALY": 272.8272,
    "EPHEMERIS_TYPE": 0,
    "CLASSIFICATION_TYPE": "U",
    "NORAD_CAT_ID": 53398,
    "ELEMENT_SET_NO": 999,
    "REV_AT_EPOCH": 18063,
    "BSTAR": 8.246900000000001e-05,
    "MEAN_MOTION_DOT": 1.025e-05,
    "MEAN_MOTION_DDOT": 0.0,
    "TLE_LINE1": "1 53398U 22097L   25315.24201796  .00001025  00000+0  82469-4 0  9995",
    "TLE_LINE2": "2 53398  53.2175 295.8525 0001384  87.2879 272.8272 15.08839461180639",
    "COMMENT": "Grouped by shell and plane from TLE"
  },
  {
    "OBJECT_NAME": "STARLINK-4528",
    "OBJECT_ID": "22097M",
    "EPOCH": "2025-11-11T06:04:24.850560",
    "MEAN_MOTION": 15.08848366,
    "ECCENTRICITY": 0.0001099,
    "INCLINATION": 53.2178,
    "RA_OF_ASC_NODE": 295.8015,
    "ARG_OF_PERICENTER": 91.8551,
    "MEAN_ANOMALY": 268.2567,
    "EPHEMERIS_TYPE": 0,
    "CLASSIFICATION_TYPE": "U",
    "NORAD_CAT_ID": 53399,
    "ELEMENT_SET_NO": 999,
    "REV_AT_EPOCH": 18063,
    "BSTAR": 0.00011254,
    "MEAN_MOTION_DOT": 1.504e-05,
    "MEAN_MOTION_DDOT": 0.0,
    "TLE_LINE1": "1 53399U 22097M   25315.25306540  .00001504  00000+0  11254-3 0  9995",
    "TLE_LINE2": "2 53399  53.2178 295.8015 0001099  91.8551 268.2567 15.08848366180638",
    "COMMENT": "Grouped by shell and plane from TLE"
  },
  {
    "OBJECT_NAME": "STARLINK-4520",
    "OBJECT_ID": "22097N",
    "EPOCH": "2025-11-11T05:32:36.601152",
    "MEAN_MOTION": 15.08842603,
    "ECCENTRICITY": 0.0001559,
    "INCLINATION": 53.217,
    "RA_OF_ASC_NODE": 295.9002,
    "ARG_OF_PERICENTER": 87.4227,
    "MEAN_ANOMALY": 272.6944,
    "EPHEMERIS_TYPE": 0,
    "CLASSIFICATION_TYPE": "U",
    "NORAD_CAT_ID": 53400,
    "ELEMENT_SET_NO": 999,
    "REV_AT_EPOCH": 18063,
    "BSTAR": 0.00020329000000000001,
    "MEAN_MOTION_DOT": 2.949e-05,
    "MEAN_MOTION_DDOT": 0.0,
    "TLE_LINE1": "1 53400U 22097N   25315.23097918  .00002949  00000+0  20329-3 0  9999",
    "TLE_LINE2": "2 53400  53.2170 295.9002 0001559  87.4227 272.6944 15.08842603180638",
    "COMMENT": "Grouped by shell and plane from TLE"
  },
  {
    "OBJECT_NAME": "STARLINK-4525",
    "OBJECT_ID": "22097P",
    "EPOCH": "2025-11-11T05:53:49.170336",
    "MEAN_MOTION": 15.08834149,
    "ECCENTRICITY": 0.0001412,
    "INCLINATION": 53.2187,
    "RA_OF_ASC_NODE": 295.8358,
    "ARG_OF_PERICENTER": 90.8801,
    "MEAN_ANOMALY": 269.2353,
    "EPHEMERIS_TYPE": 0,
    "CLASSIFICATION_TYPE": "U",
    "NORAD_CAT_ID": 53401,
    "ELEMENT_SET_NO": 999,
    "REV_AT_EPOCH": 18063,
    "BSTAR": 7.883400000000001e-05,
    "MEAN_MOTION_DOT": 9.67e-06,
    "MEAN_MOTION_DDOT": 0.0,
    "TLE_LINE1": "1 53401U 22097P   25315.24570799  .00000967  00000+0  78834-4 0  9997",
    "TLE_LINE2": "2 53401  53.2187 295.8358 0001412  90.8801 269.2353 15.08834149180636",
    "COMMENT": "Grouped by shell and plane from TLE"
  },
  {
    "OBJECT_NAME": "STARLINK-4499",
    "OBJECT_ID": "22097Q",
    "EPOCH": "2025-11-11T05:27:18.808128",
    "MEAN_MOTION": 15.0884472,
    "ECCENTRICITY": 0.0001437,
    "INCLINATION": 53.2181,
    "RA_OF_ASC_NODE": 295.917,
    "ARG_OF_PERICENTER": 90.6752,
    "MEAN_ANOMALY": 269.4405,
    "EPHEMERIS_TYPE": 0,
    "CLASSIFICATION_TYPE": "U",
    "NORAD_CAT_ID": 53402,
    "ELEMENT_SET_NO": 999,
    "REV_AT_EPOCH": 18063,
    "BSTAR": 6.9867e-05,
    "MEAN_MOTION_DOT": 8.24e-06,
    "MEAN_MOTION_DDOT": 0.0,
    "TLE_LINE1": "1 53402U 22097Q   25315.22730102  .00000824  00000+0  69867-4 0  9990",
    "TLE_LINE2": "2 53402  53.2181 295.9170 0001437  90.6752 269.4405 15.08844720180630",
    "COMMENT": "Grouped by shell and plane from TLE"
  },
  {
    "OBJECT_NAME": "STARLINK-4507",
    "OBJECT_ID": "22097R",
    "EPOCH": "2025-11-11T06:32:20.107680",
    "MEAN_MOTION": 15.08845019,
    "ECCENTRICITY": 0.0001207,
    "INCLINATION": 53.2171,
    "RA_OF_ASC_NODE": 296.0628,
    "ARG_OF_PERICENTER": 86.1238,
    "MEAN_ANOMALY": 273.9892,
    "EPHEMERIS_TYPE": 0,
    "CLASSIFICATION_TYPE": "U",
    "NORAD_CAT_ID": 53403,
    "ELEMENT_SET_NO": 999,
    "REV_AT_EPOCH": 18063,
    "BSTAR": 9.6879e-05,
    "MEAN_MOTION_DOT": 1.255e-05,
    "MEAN_MOTION_DDOT": 0.0,
    "TLE_LINE1": "1 53403U 22097R   25315.27245495  .00001255  00000+0  96879-4 0  9994",
    "TLE_LINE2": "2 53403  53.2171 296.0628 0001207  86.1238 273.9892 15.08845019180636",
    "COMMENT": "Grouped by shell and plane from TLE"
  },
  {
    "OBJECT_NAME": "STARLINK-4510",
    "OBJECT_ID": "22097T",
    "EPOCH": "2025-11-11T05:22:00.241824",
    "MEAN_MOTION": 15.08843039,
    "ECCENTRICITY": 0.000145,
    "INCLINATION": 53.2179,
    "RA_OF_ASC_NODE": 295.932,
    "ARG_OF_PERICENTER": 101.5491,
    "MEAN_ANOMALY": 258.5664,
    "EPHEMERIS_TYPE": 0,
    "CLASSIFICATION_TYPE": "U",
    "NORAD_CAT_ID": 53405,
    "ELEMENT_SET_NO": 999,
    "REV_AT_EPOCH": 18063,
    "BSTAR": 6.4284e-05,
    "MEAN_MOTION_DOT": 7.35e-06,
    "MEAN_MOTION_DDOT": 0.0,
    "TLE_LINE1": "1 53405U 22097T   25315.22361391  .00000735  00000+0  64284-4 0  9992",
    "TLE_LINE2": "2 53405  53.2179 295.9320 0001450 101.5491 258.5664 15.08843039180632",
    "COMMENT": "Grouped by shell and plane from TLE"
  },
  {
    "OBJECT_NAME": "STARLINK-6197",
    "OBJECT_ID": "23078A",
    "EPOCH": "2025-11-11T07:12:04.235328",
    "MEAN_MOTION": 15.11001059,
    "ECCENTRICITY": 0.0009422,
    "INCLINATION": 69.9943,
    "RA_OF_ASC_NODE": 295.7191,
    "ARG_OF_PERICENTER": 293.6584,
    "MEAN_ANOMALY": 66.3592,
    "EPHEMERIS_TYPE": 0,
    "CLASSIFICATION_TYPE": "U",
    "NORAD_CAT_ID": 56767,
    "ELEMENT_SET_NO": 999,
    "REV_AT_EPOCH": 13463,
    "BSTAR": 0.0027338,
    "MEAN_MOTION_DOT": 0.00045989,
    "MEAN_MOTION_DDOT": 0.0,
    "TLE_LINE1": "1 56767U 23078A   25315.30004902  .00045989  00000+0  27338-2 0  9994",
    "TLE_LINE2": "2 56767  69.9943 295.7191 0009422 293.6584  66.3592 15.11001059134632",
    "COMMENT": "Grouped by shell and plane from TLE"
  },
  {
    "OBJECT_NAME": "STARLINK-30257",
    "OBJECT_ID": "23115F",
    "EPOCH": "2025-11-10T15:06:24.861888",
    "MEAN_MOTION": 15.02534638,
    "ECCENTRICITY": 0.0001024,
    "INCLINATION": 43.0047,
    "RA_OF_ASC_NODE": 291.7822,
    "ARG_OF_PERICENTER": 271.2031,
    "MEAN_ANOMALY": 88.8694,
    "EPHEMERIS_TYPE": 0,
    "CLASSIFICATION_TYPE": "U",
    "NORAD_CAT_ID": 57526,
    "ELEMENT_SET_NO": 999,
    "REV_AT_EPOCH": 12440,
    "BSTAR": 1.9791e-05,
    "MEAN_MOTION_DOT": 6.4e-07,
    "MEAN_MOTION_DDOT": 0.0,
    "TLE_LINE1": "1 57526U 23115F   25314.62945442  .00000064  00000+0  19791-4 0  9998",
    "TLE_LINE2": "2 57526  43.0047 291.7822 0001024 271.2031  88.8694 15.02534638124400",
    "COMMENT": "Grouped by shell and plane from TLE"
  }
]